{
  "_IMPORTANT_FIND_HOSTPITALS_WITH_THIS_POST_CODE": 100114,
  "_AVAILABLE_TYPES_OF_HOSPITALS": [
    "Dental",
    "Diagnostics",
    "Oncology",
    "Psychiatric",
    "Local",
    "Cardiac",
    "Urologic",
    "Private",
    "Surgical"
  ],

  "postCode": 100114,
  "district": "Yunusobod",
  "neighbours": [100179, 100125],
  "hospitals": [
    {
      "postCode": 100114,
      "name": "AMERICAN HOSPITAL MEDICAL CENTRE",
      "type": "Cardiac",
      "address": "YUNUSABAD DISTRICT, street IKBOL, 14"
    },
    {
      "postCode": 100114,
      "name": "HAYAT MEDICAL CENTRE PRIVATE CLINIC",
      "type": "Private",
      "address": "YUNUSABAD DISTRICT, street MEVAZOR, 5/14"
    },
    {
      "postCode": 100114,
      "name": "CENTER OF NEPHROLOGY",
      "type": "Urologic",
      "address": "YUNUSABAD DISTRICT, street YANGISHAHAR, 9"
    },
    {
      "postCode": 100114,
      "name": "CITY CHILDREN'S CLINICAL HOSPITAL № 1",
      "type": "Local",
      "address": "YUNUSABAD DISTRICT, massif YUNUSABAD-3, 3"
    },
    {
      "postCode": 100114,
      "name": "DETOKS MEDIKAL NARCOLOGICAL CLINIC",
      "type": "Psychiatric",
      "address": "YUNUSABAD DISTRICT, massif YUNUSABAD-15, street AKHMAD DONISH, 75-77"
    },
    {
      "postCode": 100114,
      "name": "CITY CLINICAL HOSPITAL № 7",
      "type": "Local",
      "address": "YUNUSABAD DISTRICT, street GAYRATI, 24"
    },
    {
      "postCode": 100114,
      "name": "EVOMED PRIVATE CLINIC",
      "type": "Private",
      "address": "YUNUSABAD DISTRICT, street AKHMAD DONISH, 47 A"
    },
    {
      "postCode": 100114,
      "name": "REPUBLICAN SPECIALIZED SCIENTIFICALLY-PRACTICAL CENTER OF THERAPY AND MEDICAL REHABILITATION STATE UNITARY ENTERPRISE",
      "type": "Local",
      "address": "YUNUSABAD DISTRICT, street OSIYO, 4"
    },
    {
      "postCode": 100114,
      "name": "YASSI-DONO PRIVATE ENTERPRISE",
      "type": "Diagnostics",
      "address": "YUNUSABAD DISTRICT, massif YUNUSABAD-14, 58/66"
    },
    {
      "postCode": 100114,
      "name": "IRODA - Oilaviy stomatologiya",
      "type": "Dental",
      "address": "Yunusobod tumani, 8-mavze, Rixsiliy ko’chasi, 2-А uy, Тошкент 100190, Uzbekistan"
    },
    {
      "postCode": 100114,
      "name": "Zeta Dent",
      "type": "Dental",
      "address": "Yangi Yunusabad street 53, Uzbekistan"
    },
  ]
}
